OBJECT_NAME,OBJECT_ID,EPOCH,MEAN_MOTION,ECCENTRICITY,INCLINATION,RA_OF_ASC_NODE,ARG_OF_PERICENTER,MEAN_ANOMALY,EPHEMERIS_TYPE,CLASSIFICATION_TYPE,NORAD_CAT_ID,ELEMENT_SET_NO,REV_AT_EPOCH,BSTAR,MEAN_MOTION_DOT,MEAN_MOTION_DDOT
QIANFAN-210,2026-153K,2026-07-16T05:27:10.499904,14.24070168,.00077683,88.9921,358.9301,179.4292,180.6911,0,U,69809,999,169,.14700474E-4,.48E-6,0
QIANFAN-211,2026-153L,2026-07-16T03:45:27.762048,14.24384635,.00076237,88.9920,358.9366,179.0933,181.0274,0,U,69810,999,168,.14493569E-4,.48E-6,0
QIANFAN-212,2026-153M,2026-07-16T13:49:53.094144,14.26669472,.00082029,88.9923,358.8882,180.2237,179.8955,0,U,69811,999,174,.15677488E-4,.53E-6,0
QIANFAN-213,2026-153N,2026-07-16T13:49:50.211840,14.26673982,.00078978,88.9923,358.8881,180.0975,180.0219,0,U,69812,999,174,.6340389E-4,.168E-5,0
QIANFAN-214,2026-153P,2026-07-16T13:49:45.526368,14.26715125,.00079418,88.9923,358.8882,179.6968,180.4232,0,U,69813,999,174,.15760364E-4,.53E-6,0
QIANFAN-215,2026-153Q,2026-07-16T13:49:43.149504,14.26718530,.00080244,88.9922,358.8879,180.9616,179.1563,0,U,69814,999,174,.45072883E-4,.124E-5,0
QIANFAN-216,2026-153R,2026-07-16T13:49:42.565440,14.26719630,.00079907,88.9923,358.8881,180.7191,179.3993,0,U,69815,999,174,.52091742E-4,.141E-5,0
QIANFAN-217,2026-153S,2026-07-16T13:49:06.121920,14.26768025,.0007694,88.9922,358.8879,177.3240,182.7996,0,U,69816,999,174,.12658871E-4,.45E-6,0
QIANFAN-218,2026-153T,2026-07-16T13:48:35.525088,14.26810821,.00074698,88.9924,358.8882,174.5010,185.6267,0,U,69817,999,174,.44336377E-4,.122E-5,0
STARLINK-37520,2026-154A,2026-07-16T14:00:01.999872,15.80956573,.00018462,53.1589,285.9975,68.7361,277.8032,0,U,69819,999,289,-.51794827E-3,-.10213E-2,0
STARLINK-37553,2026-154B,2026-07-16T14:00:01.999872,15.80883296,.0000804,53.1619,285.9878,68.1275,282.7476,0,U,69820,999,289,-.15399467E-3,-.30996E-3,0
STARLINK-37561,2026-154C,2026-07-16T14:00:01.999872,15.80858513,.00013499,53.1619,285.9788,80.2854,274.8728,0,U,69821,999,289,.42595146E-4,.771E-4,0
STARLINK-37521,2026-154D,2026-07-16T14:00:01.999872,15.80848486,.00012374,53.1620,285.9701,72.5816,286.8517,0,U,69822,999,289,.12893507E-3,.24793E-3,0
STARLINK-37628,2026-154E,2026-07-16T14:00:01.999872,15.80864822,.00014738,53.1590,285.9615,67.8880,295.8129,0,U,69823,999,289,-.54122833E-4,-.11364E-3,0
STARLINK-37695,2026-154F,2026-07-16T14:00:01.999872,15.82331709,.00004605,53.1593,285.8820,101.0974,301.1952,0,U,69824,999,289,-.95864233E-2,-.1784577E-1,0
STARLINK-37690,2026-154G,2026-07-16T14:00:01.999872,15.80901092,.00014051,53.1591,285.9442,80.7983,291.4300,0,U,69825,999,289,-.34735971E-3,-.68805E-3,0
STARLINK-37710,2026-154H,2026-07-16T14:00:01.999872,15.80882341,.00010597,53.1592,285.9351,69.4620,307.0492,0,U,69826,999,289,-.1874343E-3,-.37547E-3,0
STARLINK-38031,2026-154J,2026-07-16T14:00:01.999872,15.80873218,.00010415,53.1593,285.9261,46.6648,334.0460,0,U,69827,999,289,.22421857E-3,.43779E-3,0
STARLINK-38001,2026-154K,2026-07-16T14:00:01.999872,15.80910173,.00013391,53.1593,285.9177,79.2704,305.7395,0,U,69828,999,289,-.20344439E-3,-.40734E-3,0
STARLINK-37622,2026-154L,2026-07-16T14:00:01.999872,15.80898713,.00013199,53.1591,285.9085,65.7304,323.5880,0,U,69829,999,289,-.31043652E-3,-.61608E-3,0
STARLINK-37621,2026-154M,2026-07-16T14:00:01.999872,15.80897368,.00008372,53.1593,285.8998,81.5366,312.0538,0,U,69830,999,289,-.30761588E-3,-.61051E-3,0
STARLINK-37918,2026-154N,2026-07-16T14:00:01.999872,15.80879139,.00013577,53.1593,285.8908,86.8612,311.0152,0,U,69831,999,289,-.21254394E-3,-.42456E-3,0
STARLINK-37887,2026-154P,2026-07-16T14:00:01.999872,15.80804226,.00011001,53.1592,285.8821,37.1770,4.9294,0,U,69832,999,289,.34517848E-3,.67747E-3,0
STARLINK-37624,2026-154Q,2026-07-16T14:00:01.999872,15.80871433,.00012067,53.1592,285.8730,86.7012,319.7129,0,U,69833,999,289,-.14987657E-3,-.30175E-3,0
STARLINK-37769,2026-154R,2026-07-16T14:00:01.999872,15.80885688,.00014543,53.1591,285.8640,74.9708,335.7215,0,U,69834,999,289,-.26296355E-3,-.52319E-3,0
STARLINK-37247,2026-154S,2026-07-16T14:00:01.999872,15.80781256,.00017129,53.1592,285.8558,44.9744,9.9609,0,U,69835,999,299,.19003562E-3,.3681E-3,0
STARLINK-37569,2026-154T,2026-07-16T14:00:01.999872,15.80841342,.00013216,53.1592,285.8465,79.8405,339.4056,0,U,69836,999,289,.14872667E-3,.2871E-3,0
STARLINK-37587,2026-154U,2026-07-16T14:00:01.999872,15.80847384,.00015381,53.1590,285.8378,62.7799,0.7306,0,U,69837,999,286,.15980089E-3,.30916E-3,0
STARLINK-37590,2026-154V,2026-07-16T14:00:01.999872,15.80871897,.00008626,53.1591,285.8290,96.3267,331.4595,0,U,69838,999,273,-.19076857E-3,-.38181E-3,0
