QIANFAN-210             
1 69809U 26153K   26197.22720486  .00000048  00000+0  14700-4 0  9992
2 69809  88.9921 358.9301 0007768 179.4292 180.6911 14.24070168  1697
QIANFAN-211             
1 69810U 26153L   26197.15657132  .00000048  00000+0  14494-4 0  9993
2 69810  88.9920 358.9366 0007623 179.0933 181.0274 14.24384635  1680
QIANFAN-212             
1 69811U 26153M   26197.57630896  .00000053  00000+0  15677-4 0  9998
2 69811  88.9923 358.8882 0008202 180.2237 179.8955 14.26669472  1746
QIANFAN-213             
1 69812U 26153N   26197.57627560  .00000168  00000+0  63404-4 0  9991
2 69812  88.9923 358.8881 0007897 180.0975 180.0219 14.26673982  1740
QIANFAN-214             
1 69813U 26153P   26197.57622137  .00000053  00000+0  15760-4 0  9992
2 69813  88.9923 358.8882 0007941 179.6968 180.4232 14.26715125  1743
QIANFAN-215             
1 69814U 26153Q   26197.57619386  .00000124  00000+0  45073-4 0  9994
2 69814  88.9922 358.8879 0008024 180.9616 179.1563 14.26718530  1742
QIANFAN-216             
1 69815U 26153R   26197.57618710  .00000141  00000+0  52092-4 0  9993
2 69815  88.9923 358.8881 0007990 180.7191 179.3993 14.26719630  1745
QIANFAN-217             
1 69816U 26153S   26197.57576530  .00000045  00000+0  12659-4 0  9995
2 69816  88.9922 358.8879 0007694 177.3240 182.7996 14.26768025  1743
QIANFAN-218             
1 69817U 26153T   26197.57541117  .00000122  00000+0  44336-4 0  9992
2 69817  88.9924 358.8882 0007469 174.5010 185.6267 14.26810821  1749
STARLINK-37520          
1 69819U 26154A   26197.58335648 -.00102130  00000+0 -51795-3 0  9996
2 69819  53.1589 285.9975 0001846  68.7361 277.8032 15.80956573  2898
STARLINK-37553          
1 69820U 26154B   26197.58335648 -.00030996  00000+0 -15399-3 0  9998
2 69820  53.1619 285.9878 0000804  68.1275 282.7476 15.80883296  2895
STARLINK-37561          
1 69821U 26154C   26197.58335648  .00007710  00000+0  42595-4 0  9994
2 69821  53.1619 285.9788 0001349  80.2854 274.8728 15.80858513  2895
STARLINK-37521          
1 69822U 26154D   26197.58335648  .00024793  00000+0  12894-3 0  9993
2 69822  53.1620 285.9701 0001237  72.5816 286.8517 15.80848486  2898
STARLINK-37628          
1 69823U 26154E   26197.58335648 -.00011364  00000+0 -54123-4 0  9998
2 69823  53.1590 285.9615 0001473  67.8880 295.8129 15.80864822  2890
STARLINK-37695          
1 69824U 26154F   26197.58335648 -.01784577  00000+0 -95864-2 0  9998
2 69824  53.1593 285.8820 0000460 101.0974 301.1952 15.82331709  2891
STARLINK-37690          
1 69825U 26154G   26197.58335648 -.00068805  00000+0 -34736-3 0  9999
2 69825  53.1591 285.9442 0001405  80.7983 291.4300 15.80901092  2898
STARLINK-37710          
1 69826U 26154H   26197.58335648 -.00037547  00000+0 -18743-3 0  9999
2 69826  53.1592 285.9351 0001059  69.4620 307.0492 15.80882341  2897
STARLINK-38031          
1 69827U 26154J   26197.58335648  .00043779  00000+0  22422-3 0  9991
2 69827  53.1593 285.9261 0001041  46.6648 334.0460 15.80873218  2895
STARLINK-38001          
1 69828U 26154K   26197.58335648 -.00040734  00000+0 -20344-3 0  9993
2 69828  53.1593 285.9177 0001339  79.2704 305.7395 15.80910173  2891
STARLINK-37622          
1 69829U 26154L   26197.58335648 -.00061608  00000+0 -31044-3 0  9996
2 69829  53.1591 285.9085 0001319  65.7304 323.5880 15.80898713  2894
STARLINK-37621          
1 69830U 26154M   26197.58335648 -.00061051  00000+0 -30762-3 0  9996
2 69830  53.1593 285.8998 0000837  81.5366 312.0538 15.80897368  2896
STARLINK-37918          
1 69831U 26154N   26197.58335648 -.00042456  00000+0 -21254-3 0  9991
2 69831  53.1593 285.8908 0001357  86.8612 311.0152 15.80879139  2895
STARLINK-37887          
1 69832U 26154P   26197.58335648  .00067747  00000+0  34518-3 0  9997
2 69832  53.1592 285.8821 0001100  37.1770   4.9294 15.80804226  2899
STARLINK-37624          
1 69833U 26154Q   26197.58335648 -.00030175  00000+0 -14988-3 0  9994
2 69833  53.1592 285.8730 0001206  86.7012 319.7129 15.80871433  2893
STARLINK-37769          
1 69834U 26154R   26197.58335648 -.00052319  00000+0 -26296-3 0  9994
2 69834  53.1591 285.8640 0001454  74.9708 335.7215 15.80885688  2890
STARLINK-37247          
1 69835U 26154S   26197.58335648  .00036810  00000+0  19004-3 0  9990
2 69835  53.1592 285.8558 0001712  44.9744   9.9609 15.80781256  2998
STARLINK-37569          
1 69836U 26154T   26197.58335648  .00028710  00000+0  14873-3 0  9990
2 69836  53.1592 285.8465 0001321  79.8405 339.4056 15.80841342  2892
STARLINK-37587          
1 69837U 26154U   26197.58335648  .00030916  00000+0  15980-3 0  9992
2 69837  53.1590 285.8378 0001538  62.7799   0.7306 15.80847384  2866
STARLINK-37590          
1 69838U 26154V   26197.58335648 -.00038181  00000+0 -19077-3 0  9998
2 69838  53.1591 285.8290 0000862  96.3267 331.4595 15.80871897  2739
